P/2012 K3 (Gibbs),e,13.1881,125.8202,172.2401,3.628732,0.1425843,0.42242496,183.8232,02/26.0/2023,2000,g 15.0,4.0
# From MPC 88326
P/2012 NJ (La Sagra),e,84.5524,315.6012,338.3867,8.466262,0.0400098,0.84671458,156.3426,02/26.0/2023,2000,g 14.5,4.0
# From MPC 81470
P/2012 O1 (McNaught),e,7.4268,91.9242,238.3365,3.541798,0.1478660,0.59421663,215.2976,02/26.0/2023,2000,g 17.5,4.0
# From MPC 80899
P/2012 O2 (McNaught),e,24.4663,120.6826,183.4774,3.626440,0.1427195,0.53191471,198.7112,02/26.0/2023,2000,g 17.0,4.0
# From MPC 82320
P/2012 T2 (PANSTARRS),e,12.5684,73.7167,310.8148,5.727184,0.0719105,0.16239989,257.8833,02/26.0/2023,2000,g 10.0,4.0
# From MPC 80900
P/2012 T3 (PANSTARRS),e,9.5571,114.3635,195.5443,6.151446,0.0646009,0.61659453,255.0398,02/26.0/2023,2000,g 15.0,4.0
# From MPC 82720
P/2012 U2 (PANSTARRS),e,10.7597,185.3259,228.2661,7.131235,0.0517556,0.50009604,194.2628,02/26.0/2023,2000,g 12.5,4.0
# From MPC 84024
P/2012 US27 (Siding Spring),e,39.3698,49.2082,0.8334,5.164290,0.0839824,0.64830031,309.3393,02/26.0/2023,2000,g 13.5,4.0
# From MPC 82721
P/2012 WA34 (Lemmon-PANSTARRS),e,6.0821,93.5550,356.6176,4.679868,0.0973540,0.34371499,347.0770,02/26.0/2023,2000,g 13.5,4.0
# From MPC 82721
P/2013 AL76 (Catalina),e,144.8753,146.0195,27.0401,6.500150,0.0594729,0.68588677,222.3911,02/26.0/2023,2000,g 16.0,4.0
# From MPEC 2022-K19
P/2013 EW90,e,31.7918,160.2884,346.0237,4.112050,0.1181997,0.19470309,87.7102,02/26.0/2023,2000,g 14.3,4.0
# From MPC 91612
P/2013 G1 (Kowalski),e,5.4576,221.3051,51.5475,6.898286,0.0543992,0.51102739,183.1538,02/26.0/2023,2000,g 11.0,4.0
# From MPC 84025
P/2013 G4 (PANSTARRS),e,5.9160,339.6318,214.6173,4.437869,0.1054247,0.40915556,26.5420,02/26.0/2023,2000,g 15.0,4.0
# From MPC 91613
P/2013 J2 (McNaught),e,15.5084,289.3347,37.8838,6.223343,0.0634846,0.65724432,220.0052,02/26.0/2023,2000,g 13.0,4.0
# From MPC 86229
P/2013 N3 (PANSTARRS),e,2.1734,17.4780,323.9770,7.395962,0.0490018,0.59290891,161.4400,02/26.0/2023,2000,g 13.0,4.0
# From MPC 85834
P/2013 N5 (PANSTARRS),e,23.4616,187.1552,176.9495,6.797022,0.0556194,0.73249560,195.7587,02/26.0/2023,2000,g 17.0,4.0
# From MPC 85834
P/2013 P1 (PANSTARRS),e,18.7219,160.6046,138.2544,8.583346,0.0391940,0.60438822,143.0831,02/26.0/2023,2000,g 12.0,4.0
# From MPEC 2022-V95
P/2013 R3 (Catalina-PANSTARRS),e,0.8650,341.9728,11.3049,3.031798,0.1867040,0.27562271,287.4846,02/26.0/2023,2000,g 14.0,4.0
# From unp
P/2013 R3-A (Catalina-PANSTARRS),e,0.8641,341.9277,11.3838,3.031552,0.1867267,0.27555338,287.5453,02/26.0/2023,2000,g  9.0,4.0
# From MPEC 2015-M77
P/2013 R3-B (Catalina-PANSTARRS),e,0.8654,341.9836,11.3186,3.031773,0.1867064,0.27559868,287.4792,02/26.0/2023,2000,g  9.0,4.0
# From MPC 85835
P/2013 T1 (PANSTARRS),e,24.3028,10.0802,346.1750,5.856512,0.0695417,0.62427315,242.5795,02/26.0/2023,2000,g 16.5,4.0
# From MPC 86643
P/2013 T2 (Schwartz),e,9.4569,0.8019,345.5872,3.491997,0.1510404,0.50100764,178.6837,02/26.0/2023,2000,g 16.0,4.0
# From MPC 91613
P/2013 W1 (PANSTARRS),e,4.6969,117.8390,1.2243,3.487273,0.1513474,0.59296480,136.0229,02/26.0/2023,2000,g 17.5,4.0
# From MPC101095
P/2013 YG46 (Spacewatch),e,7.8576,48.8362,242.6054,3.273714,0.1663961,0.45461894,8.4363,02/26.0/2023,2000,g 10.0,4.0
# From MPC 89728
P/2014 A2 (Hill),e,24.5484,106.6342,356.1454,5.926997,0.0683049,0.64577882,234.0210,02/26.0/2023,2000,g 15.0,4.0
# From MPC 92981
P/2014 A3 (PANSTARRS),e,13.7172,229.9778,214.1488,4.607663,0.0996513,0.24652059,354.4745,02/26.0/2023,2000,g 12.0,4.0
# From MPC102095
P/2014 C1 (TOTAS),e,2.6933,167.8199,23.9600,3.031480,0.1867334,0.45142767,263.4727,02/26.0/2023,2000,g 15.5,4.0
# From MPEC 2022-WD2
C/2014 F3 (Sheppard-Trujillo),e,6.5355,326.3104,4.5951,14.54988,0.0177588,0.60754993,11.3269,02/26.0/2023,2000,g  6.0,4.0
# From MPC 98560
P/2014 L2 (NEOWISE),e,5.1982,149.3457,182.7232,6.305660,0.0622455,0.64780520,195.5125,02/26.0/2023,2000,g 12.0,4.0
# From MPC 90769
P/2014 L3 (Hill),e,6.2659,115.4967,178.7086,8.178868,0.0421371,0.77254610,133.2827,02/26.0/2023,2000,g 16.0,4.0
# From MPC 91614
P/2014 M4 (PANSTARRS),e,3.3440,263.1792,148.0535,5.867896,0.0693395,0.59571359,206.6329,02/26.0/2023,2000,g 15.0,4.0
# From MPEC 2022-K19
P/2014 MG4 (Spacewatch-PANSTARRS),e,9.3662,311.7237,299.0249,5.013558,0.0877981,0.25887119,310.8811,02/26.0/2023,2000,g  9.5,4.0
# From MPC 98560
P/2014 O3 (PANSTARRS),e,7.7951,87.6387,204.7923,7.577733,0.0472493,0.38423118,152.9285,02/26.0/2023,2000,g 10.5,4.0
# From MPEC 2023-A50
C/2014 OG392 (PANSTARRS),e,9.0330,145.8053,254.4334,12.25546,0.0229726,0.18641503,10.1796,02/26.0/2023,2000,g  6.0,4.0
# From MPC 91616
P/2014 U4 (PANSTARRS),e,6.4290,11.8859,347.8467,3.509151,0.1499343,0.46480397,111.3033,02/26.0/2023,2000,g 18.0,4.0
# From MPEC 2023-C45
C/2014 UN271 (Bernardinelli-Bernstein),h,01/21.6007/2031,95.4299,189.8974,326.2242,1.001276,10.947638,2000,2.5,3.2
# From MPC 95211
P/2014 V1 (PANSTARRS),e,22.5239,166.1983,177.6620,5.479447,0.0768420,0.53438259,226.7700,02/26.0/2023,2000,g 14.0,4.0
# From MPC 93586
P/2014 W1 (PANSTARRS),e,8.8358,246.2240,152.1201,4.468069,0.1043576,0.38950579,329.0966,02/26.0/2023,2000,g 15.5,4.0
# From MPC105542
P/2014 W4 (PANSTARRS),e,15.2835,33.3897,67.5873,6.587577,0.0582929,0.35352098,152.3686,02/26.0/2023,2000,g 11.0,4.0
# From MPC 94281
P/2014 X1 (Elenin),e,26.0509,61.5695,33.8644,6.204334,0.0637766,0.70971591,189.9009,02/26.0/2023,2000,g 15.0,4.0
# From MPC 92275
P/2015 A3 (PANSTARRS),e,172.5423,277.3398,249.4812,7.815864,0.0451064,0.85032367,132.1837,02/26.0/2023,2000,g 20.0,4.0
# From MPC 99270
P/2015 B1 (PANSTARRS),e,18.0559,352.9140,188.8587,9.489275,0.0337174,0.36642214,91.9540,02/26.0/2023,2000,g  8.5,4.0
# From MPC109141
P/2015 B4 (Lemmon-PANSTARRS),e,1.7639,266.0703,227.2311,8.515456,0.0396636,0.56071850,116.8241,02/26.0/2023,2000,g 11.0,4.0
# From MPC101096
P/2015 C1 (TOTAS-Gibbs),e,13.9218,348.7907,178.0896,6.573531,0.0584798,0.56119096,167.6382,02/26.0/2023,2000,g 12.5,4.0
# From MPC109141
P/2015 D5 (Kowalski),e,20.5369,74.0745,39.6457,8.952518,0.0367948,0.49011472,119.6714,02/26.0/2023,2000,g  9.0,4.0
# From MPC 96866
P/2015 D6 (Lemmon-PANSTARRS),e,20.2078,45.8439,124.9957,7.134892,0.0517158,0.36143277,144.9172,02/26.0/2023,2000,g 10.5,4.0
# From MPEC 2021-P47
P/2015 HG16 (PANSTARRS),e,18.8850,57.3220,47.4019,4.787428,0.0940916,0.35197698,303.4908,02/26.0/2023,2000,g 12.5,4.0
# From MPC 95213
P/2015 K5 (PANSTARRS),e,39.9423,134.2234,106.3053,6.726693,0.0564939,0.55178110,159.7700,02/26.0/2023,2000,g 13.5,4.0
# From MPC107684
P/2015 M2 (PANSTARRS),e,3.9692,86.5823,226.0207,7.244625,0.0505452,0.17959687,137.6289,02/26.0/2023,2000,g  8.5,4.0
# From MPEC 2021-P47
C/2015 O1 (PANSTARRS),h,02/20.2044/2018,127.1667,299.8219,89.5179,1.001354,3.719724,2000,6.5,4.0
# From MPC 99819
P/2015 P4 (PANSTARRS),e,8.7179,104.6696,280.6889,6.046675,0.0662871,0.58575856,171.6775,02/26.0/2023,2000,g 14.0,4.0
# From MPEC 2022-K19
P/2015 PD229 (Cameron-ISON),e,2.0246,342.6644,352.7088,7.194164,0.0510780,0.32739006,140.4284,02/26.0/2023,2000,g 11.5,2.0
# From MPC 96867
P/2015 Q2 (Pimentel),e,146.5523,228.5410,244.6556,7.353453,0.0494273,0.75072302,134.8471,02/26.0/2023,2000,g 15.5,4.0
# From MPC 98562
P/2015 R1 (PANSTARRS),e,22.6997,48.3210,300.5919,5.880742,0.0691124,0.63421381,193.2907,02/26.0/2023,2000,g 14.0,4.0
# From MPC 95734
P/2015 R2 (PANSTARRS),e,15.4845,168.5954,149.8609,4.485121,0.1037631,0.45270914,291.6707,02/26.0/2023,2000,g 14.5,4.0
# From MPC 96280
P/2015 T3 (PANSTARRS),e,13.0937,120.5019,178.6330,4.326181,0.1095335,0.50818108,359.9227,12/21.0/2014,2000,g 14.0,4.0
# From MPC102953
P/2015 TO19 (Lemmon-PANSTARRS),e,6.5012,321.6236,89.2037,4.551452,0.1015031,0.35943732,258.3851,02/26.0/2023,2000,g 14.0,4.0
# From MPC110080
P/2015 TP200 (LINEAR),e,8.7802,7.0157,82.4385,7.264161,0.0503415,0.53636798,116.3301,02/26.0/2023,2000,g 11.0,4.0
# From MPC101098
P/2015 W2 (Catalina),e,11.6109,294.1324,117.5745,7.290707,0.0500668,0.63535564,135.2412,02/26.0/2023,2000,g 13.0,4.0
# From MPEC 2022-OB6
C/2015 XY1 (Lemmon),e,148.8517,281.5655,196.1377,16352,0.0000005,0.99951528,0.0000,04/25.3670/2018,2000,g  5.5,4.0
# From MPEC 2022-OB6
P/2015 X3 (PANSTARRS),e,24.4060,77.2677,306.7760,5.002842,0.0880803,0.44009190,242.5244,02/26.0/2023,2000,g 15.0,4.0
# From MPC115881
P/2015 X6 (PANSTARRS),e,4.5651,106.9313,329.7858,2.752152,0.2158716,0.17324121,186.0202,02/26.0/2023,2000,g 16.0,4.0
# From MPC100282
P/2016 A2 (Christensen),e,26.4041,291.6182,141.2860,4.753575,0.0950985,0.27095771,267.7423,02/26.0/2023,2000,g 11.5,4.0
# From MPEC 2022-OB6
P/2016 A3 (PANSTARRS),e,8.5112,187.2178,340.9005,7.878698,0.0445679,0.38604613,95.0320,02/26.0/2023,2000,g 10.0,4.0
# From MPC102098
P/2016 A7 (PANSTARRS),e,16.6035,221.4974,352.5133,5.035349,0.0872288,0.56450838,223.6916,02/26.0/2023,2000,g 16.0,4.0
# From MPC109143
P/2016 BA14 (PANSTARRS),e,18.8968,180.5134,351.9714,3.026826,0.1871642,0.66437626,115.8625,02/26.0/2023,2000,g 21.0,4.0
# From MPEC 2021-P47
P/2016 G1 (PANSTARRS),e,10.9711,204.0172,111.1508,2.582950,0.2374269,0.21064728,167.6907,02/26.0/2023,2000,g 14.0,4.0
# From MPEC 2017-D91
P/2016 J1-A (PANSTARRS),e,14.3294,199.8078,47.1122,3.173129,0.1743703,0.22771159,64.5000,02/26.0/2023,2000,g 16.5,4.0
# From MPEC 2017-A77
P/2016 J1-B (PANSTARRS),e,14.3322,199.8126,47.0038,3.172766,0.1744002,0.22756215,64.6487,02/26.0/2023,2000,g 17.0,4.0
# From MPEC 2022-ED3
C/2016 M1 (PANSTARRS),e,90.8597,92.2647,209.9344,41510,0.0000001,0.99994666,0.0000,08/10.4768/2018,2000,g  5.0,4.0
# From MPEC 2021-P47
C/2016 N6 (PANSTARRS),e,105.8635,298.9054,162.5798,962.0386,0.0000330,0.99723519,0.0000,07/17.4168/2018,2000,g  7.0,4.0
# From MPC102099
P/2016 P1 (PANSTARRS),e,24.4020,319.4975,270.5702,3.200380,0.1721479,0.28929614,107.5130,02/26.0/2023,2000,g 15.0,4.0
# From MPEC 2023-D41
C/2016 Q2 (PANSTARRS),h,05/12.3872/2021,109.3804,322.3123,84.5573,1.003005,7.081857,2000,6.0,4.0
# From MPEC 2021-N06
C/2016 R2 (PANSTARRS),e,58.3372,80.5105,33.0925,478.8051,0.0000941,0.99457807,0.0000,05/09.2965/2018,2000,g  7.0,4.0
